{"type": "FeatureCollection", "features": [ {"type": "Feature", "properties": {"norad_id": 39778, "name": "IRIDIUM 33 DEB", "group": "iridium-33-debris", "lat": -83.08051732298286, "lon": 10.712290035332293, "alt_km": 721.7820194783435, "timestamp": "2025-12-15T04:01:20.837949+00:00", "meta": {"OBJECT_NAME": "IRIDIUM 33 DEB", "OBJECT_ID": "1997-051AAK", "EPOCH": "2025-12-13T14:25:38.136576", "MEAN_MOTION": 14.54273042, "ECCENTRICITY": 0.00079139, "INCLINATION": 86.3783, "RA_OF_ASC_NODE": 42.8516, "ARG_OF_PERICENTER": 39.4085, "MEAN_ANOMALY": 320.7696, "EPHEMERIS_TYPE": 0, "CLASSIFICATION_TYPE": "U", "NORAD_CAT_ID": 39778, "ELEMENT_SET_NO": 999, "REV_AT_EPOCH": 60705, "BSTAR": 0.0010983749, "MEAN_MOTION_DOT": 4.677e-05, "MEAN_MOTION_DDOT": 0}, "tle": {"line1": "1 39778U 97051AAK 25347.60113584  .00004677  00000+0  10984-2 0  9992", "line2": "2 39778  86.3783  42.8516 0007913  39.4085 320.7696 14.54273042607059"}}, "geometry": {"type": "Point", "coordinates": [10.712290035332293, -83.08051732298286]}}, {"type": "Feature", "properties": {"norad_id": 39781, "name": "IRIDIUM 33 DEB", "group": "iridium-33-debris", "lat": 81.07651504534974, "lon": 53.13208518033957, "alt_km": 939.2766951389076, "timestamp": "2025-12-15T04:01:20.837959+00:00", "meta": {"OBJECT_NAME": "IRIDIUM 33 DEB", "OBJECT_ID": "1997-051AAN", "EPOCH": "2025-12-14T00:34:51.097728", "MEAN_MOTION": 14.20688374, "ECCENTRICITY": 0.01761815, "INCLINATION": 86.3701, "RA_OF_ASC_NODE": 257.4496, "ARG_OF_PERICENTER": 269.1921, "MEAN_ANOMALY": 105.0871, "EPHEMERIS_TYPE": 0, "CLASSIFICATION_TYPE": "U", "NORAD_CAT_ID": 39781, "ELEMENT_SET_NO": 999, "REV_AT_EPOCH": 8125, "BSTAR": 0.0055357325, "MEAN_MOTION_DOT": 0.00013979, "MEAN_MOTION_DDOT": 0}, "tle": {"line1": "1 39781U 97051AAN 25348.02420252  .00013979  00000+0  55357-2 0  9994", "line2": "2 39781  86.3701 257.4496 0176181 269.1921 105.0871 14.20688374 81257"}}, "geometry": {"type": "Point", "coordinates": [53.13208518033957, 81.07651504534974]}}, {"type": "Feature", "properties": {"norad_id": 39783, "name": "IRIDIUM 33 DEB", "group": "iridium-33-debris", "lat": -49.10587013363483, "lon": -110.47318416686578, "alt_km": 472.0419245875646, "timestamp": "2025-12-15T04:01:20.837969+00:00", "meta": {"OBJECT_NAME": "IRIDIUM 33 DEB", "OBJECT_ID": "1997-051AAQ", "EPOCH": "2025-11-16T15:05:40.850592", "MEAN_MOTION": 15.19327111, "ECCENTRICITY": 0.00057535, "INCLINATION": 86.1306, "RA_OF_ASC_NODE": 268.8004, "ARG_OF_PERICENTER": 179.9151, "MEAN_ANOMALY": 1.8316, "EPHEMERIS_TYPE": 0, "CLASSIFICATION_TYPE": "U", "NORAD_CAT_ID": 39783, "ELEMENT_SET_NO": 999, "REV_AT_EPOCH": 60401, "BSTAR": 0.010398125, "MEAN_MOTION_DOT": 0.00226179, "MEAN_MOTION_DDOT": 0}, "tle": {"line1": "1 39783U 97051AAQ 25320.62894503  .00226179  00000+0  10398-1 0  9999", "line2": "2 39783  86.1306 268.8004 0005753 179.9151   1.8316 15.19327111604018"}}, "geometry": {"type": "Point", "coordinates": [-110.47318416686578, -49.10587013363483]}}, {"type": "Feature", "properties": {"norad_id": 40996, "name": "IRIDIUM 33 DEB", "group": "iridium-33-debris", "lat": -28.45586394771136, "lon": -177.74271389111829, "alt_km": 591.2292639597799, "timestamp": "2025-12-15T04:01:20.837980+00:00", "meta": {"OBJECT_NAME": "IRIDIUM 33 DEB", "OBJECT_ID": "1997-051ABJ", "EPOCH": "2025-12-12T07:45:11.152800", "MEAN_MOTION": 14.96217536, "ECCENTRICITY": 0.00119593, "INCLINATION": 86.3523, "RA_OF_ASC_NODE": 1.6046, "ARG_OF_PERICENTER": 64.2736, "MEAN_ANOMALY": 311.0223, "EPHEMERIS_TYPE": 0, "CLASSIFICATION_TYPE": "U", "NORAD_CAT_ID": 40996, "ELEMENT_SET_NO": 999, "REV_AT_EPOCH": 62482, "BSTAR": 0.0043106688, "MEAN_MOTION_DOT": 0.00048971, "MEAN_MOTION_DDOT": 0}, "tle": {"line1": "1 40996U 97051ABJ 25346.32304575  .00048971  00000+0  43107-2 0  9994", "line2": "2 40996  86.3523   1.6046 0011959  64.2736 311.0223 14.96217536624825"}}, "geometry": {"type": "Point", "coordinates": [-177.74271389111829, -28.45586394771136]}}, {"type": "Feature", "properties": {"norad_id": 40998, "name": "IRIDIUM 33 DEB", "group": "iridium-33-debris", "lat": -35.70621027409256, "lon": -124.77534044477602, "alt_km": 753.1052160828331, "timestamp": "2025-12-15T04:01:20.837990+00:00", "meta": {"OBJECT_NAME": "IRIDIUM 33 DEB", "OBJECT_ID": "1997-051ABL", "EPOCH": "2025-12-13T11:11:31.069248", "MEAN_MOTION": 14.45102839, "ECCENTRICITY": 0.00094531, "INCLINATION": 86.3828, "RA_OF_ASC_NODE": 53.3453, "ARG_OF_PERICENTER": 82.4935, "MEAN_ANOMALY": 288.1024, "EPHEMERIS_TYPE": 0, "CLASSIFICATION_TYPE": "U", "NORAD_CAT_ID": 40998, "ELEMENT_SET_NO": 999, "REV_AT_EPOCH": 6692, "BSTAR": 0.0007848107, "MEAN_MOTION_DOT": 2.764e-05, "MEAN_MOTION_DDOT": 0}, "tle": {"line1": "1 40998U 97051ABL 25347.46633182  .00002764  00000+0  78481-3 0  9995", "line2": "2 40998  86.3828  53.3453 0009453  82.4935 288.1024 14.45102839 66927"}}, "geometry": {"type": "Point", "coordinates": [-124.77534044477602, -35.70621027409256]}}, {"type": "Feature", "properties": {"norad_id": 46435, "name": "IRIDIUM 33 DEB", "group": "iridium-33-debris", "lat": -26.370658879249298, "lon": -168.9414437459513, "alt_km": 724.140453223331, "timestamp": "2025-12-15T04:01:20.838000+00:00", "meta": {"OBJECT_NAME": "IRIDIUM 33 DEB", "OBJECT_ID": "1997-051ABN", "EPOCH": "2025-12-13T20:22:29.882208", "MEAN_MOTION": 14.32399442, "ECCENTRICITY": 0.0208315, "INCLINATION": 86.2839, "RA_OF_ASC_NODE": 193.4722, "ARG_OF_PERICENTER": 272.7642, "MEAN_ANOMALY": 103.0816, "EPHEMERIS_TYPE": 0, "CLASSIFICATION_TYPE": "U", "NORAD_CAT_ID": 46435, "ELEMENT_SET_NO": 999, "REV_AT_EPOCH": 7932, "BSTAR": 0.009141333, "MEAN_MOTION_DOT": 0.00031559, "MEAN_MOTION_DDOT": 0}, "tle": {"line1": "1 46435U 97051ABN 25347.84895697  .00031559  00000+0  91413-2 0  9993", "line2": "2 46435  86.2839 193.4722 0208315 272.7642 103.0816 14.32399442 79328"}}, "geometry": {"type": "Point", "coordinates": [-168.9414437459513, -26.370658879249298]}}, {"type": "Feature", "properties": {"norad_id": 46734, "name": "IRIDIUM 33 DEB", "group": "iridium-33-debris", "lat": -65.89959539833221, "lon": -169.80265289466467, "alt_km": 755.3702855293477, "timestamp": "2025-12-15T04:01:20.838010+00:00", "meta": {"OBJECT_NAME": "IRIDIUM 33 DEB", "OBJECT_ID": "1997-051ABR", "EPOCH": "2025-12-13T07:39:56.344032", "MEAN_MOTION": 14.41895054, "ECCENTRICITY": 0.00384162, "INCLINATION": 86.2642, "RA_OF_ASC_NODE": 2.6096, "ARG_OF_PERICENTER": 333.7595, "MEAN_ANOMALY": 45.1508, "EPHEMERIS_TYPE": 0, "CLASSIFICATION_TYPE": "U", "NORAD_CAT_ID": 46734, "ELEMENT_SET_NO": 999, "REV_AT_EPOCH": 63019, "BSTAR": 0.001605315, "MEAN_MOTION_DOT": 5.319e-05, "MEAN_MOTION_DDOT": 0}, "tle": {"line1": "1 46734U 97051ABR 25347.31940213  .00005319  00000+0  16053-2 0  9994", "line2": "2 46734  86.2642   2.6096 0038416 333.7595  45.1508 14.41895054630197"}}, "geometry": {"type": "Point", "coordinates": [-169.80265289466467, -65.89959539833221]}}, {"type": "Feature", "properties": {"norad_id": 46965, "name": "IRIDIUM 33 DEB", "group": "iridium-33-debris", "lat": -4.635993082683953, "lon": 159.91917332874422, "alt_km": 705.637546683548, "timestamp": "2025-12-15T04:01:20.838020+00:00", "meta": {"OBJECT_NAME": "IRIDIUM 33 DEB", "OBJECT_ID": "1997-051ABX", "EPOCH": "2025-12-13T10:45:20.165184", "MEAN_MOTION": 14.60307321, "ECCENTRICITY": 0.00180716, "INCLINATION": 86.336, "RA_OF_ASC_NODE": 340.3836, "ARG_OF_PERICENTER": 330.9129, "MEAN_ANOMALY": 180.178, "EPHEMERIS_TYPE": 0, "CLASSIFICATION_TYPE": "U", "NORAD_CAT_ID": 46965, "ELEMENT_SET_NO": 999, "REV_AT_EPOCH": 62278, "BSTAR": 0.0013493066, "MEAN_MOTION_DOT": 6.553e-05, "MEAN_MOTION_DDOT": 0}, "tle": {"line1": "1 46965U 97051ABX 25347.44815006  .00006553  00000+0  13493-2 0  9991", "line2": "2 46965  86.3360 340.3836 0018071 330.9129 180.1780 14.60307321622786"}}, "geometry": {"type": "Point", "coordinates": [159.91917332874422, -4.635993082683953]}}, {"type": "Feature", "properties": {"norad_id": 46971, "name": "IRIDIUM 33 DEB", "group": "iridium-33-debris", "lat": -54.31732958784835, "lon": 157.08867592772938, "alt_km": 579.0966869471131, "timestamp": "2025-12-15T04:01:20.838030+00:00", "meta": {"OBJECT_NAME": "IRIDIUM 33 DEB", "OBJECT_ID": "1997-051ACD", "EPOCH": "2025-12-09T17:53:50.411040", "MEAN_MOTION": 14.9771662, "ECCENTRICITY": 0.00041979, "INCLINATION": 86.3387, "RA_OF_ASC_NODE": 334.5212, "ARG_OF_PERICENTER": 335.9126, "MEAN_ANOMALY": 199.6728, "EPHEMERIS_TYPE": 0, "CLASSIFICATION_TYPE": "U", "NORAD_CAT_ID": 46971, "ELEMENT_SET_NO": 999, "REV_AT_EPOCH": 64185, "BSTAR": 0.0038941985, "MEAN_MOTION_DOT": 0.00045901, "MEAN_MOTION_DDOT": 0}, "tle": {"line1": "1 46971U 97051ACD 25343.74572235  .00045901  00000+0  38942-2 0  9997", "line2": "2 46971  86.3387 334.5212 0004197 335.9126 199.6728 14.97716620641853"}}, "geometry": {"type": "Point", "coordinates": [157.08867592772938, -54.31732958784835]}}, {"type": "Feature", "properties": {"norad_id": 46974, "name": "IRIDIUM 33 DEB", "group": "iridium-33-debris", "lat": 59.07283272529128, "lon": -81.98791007135657, "alt_km": 701.8004361359981, "timestamp": "2025-12-15T04:01:20.838062+00:00", "meta": {"OBJECT_NAME": "IRIDIUM 33 DEB", "OBJECT_ID": "1997-051ACG", "EPOCH": "2025-12-13T01:34:59.316384", "MEAN_MOTION": 14.44392499, "ECCENTRICITY": 0.00956741, "INCLINATION": 86.2983, "RA_OF_ASC_NODE": 105.1329, "ARG_OF_PERICENTER": 185.9471, "MEAN_ANOMALY": 174.0604, "EPHEMERIS_TYPE": 0, "CLASSIFICATION_TYPE": "U", "NORAD_CAT_ID": 46974, "ELEMENT_SET_NO": 999, "REV_AT_EPOCH": 57513, "BSTAR": 0.0074669983, "MEAN_MOTION_DOT": 0.00027304, "MEAN_MOTION_DDOT": 0}, "tle": {"line1": "1 46974U 97051ACG 25347.06596431  .00027304  00000+0  74670-2 0  9998", "line2": "2 46974  86.2983 105.1329 0095674 185.9471 174.0604 14.44392499575137"}}, "geometry": {"type": "Point", "coordinates": [-81.98791007135657, 59.07283272529128]}}]}